{"type": "FeatureCollection", "features": [ {"type": "Feature", "properties": {"norad_id": 44476, "name": "INTELSAT 39 (IS-39)", "group": "intelsat", "lat": -0.017182441435820026, "lon": -32.09301381319247, "alt_km": 35791.57474260859, "timestamp": "2025-12-23T11:34:47.849578+00:00", "meta": {"OBJECT_NAME": "INTELSAT 39 (IS-39)", "OBJECT_ID": "2019-049B", "EPOCH": "2025-12-23T03:09:21.226752", "MEAN_MOTION": 1.00270284, "ECCENTRICITY": 0.0001211, "INCLINATION": 0.0187, "RA_OF_ASC_NODE": 343.7162, "ARG_OF_PERICENTER": 160.75, "MEAN_ANOMALY": 56.7434, "EPHEMERIS_TYPE": 0, "CLASSIFICATION_TYPE": "U", "NORAD_CAT_ID": 44476, "ELEMENT_SET_NO": 999, "REV_AT_EPOCH": 2336, "BSTAR": 0, "MEAN_MOTION_DOT": 5.5e-07, "MEAN_MOTION_DDOT": 0}, "tle": {"line1": "1 44476U 19049B   25357.13149568  .00000055  00000+0  00000+0 0  9995", "line2": "2 44476   0.0187 343.7162 0001211 160.7500  56.7434  1.00270284 23360"}}, "geometry": {"type": "Point", "coordinates": [-32.09301381319247, -0.017182441435820026]}}, {"type": "Feature", "properties": {"norad_id": 46114, "name": "GALAXY 30 (G-30)", "group": "intelsat", "lat": 0.033234137033691234, "lon": 140.94661846400868, "alt_km": 35791.552735606754, "timestamp": "2025-12-23T11:34:47.849589+00:00", "meta": {"OBJECT_NAME": "GALAXY 30 (G-30)", "OBJECT_ID": "2020-056C", "EPOCH": "2025-12-23T03:38:39.356160", "MEAN_MOTION": 1.00270214, "ECCENTRICITY": 0.0002016, "INCLINATION": 0.0188, "RA_OF_ASC_NODE": 12.6466, "ARG_OF_PERICENTER": 254.5213, "MEAN_ANOMALY": 114.4446, "EPHEMERIS_TYPE": 0, "CLASSIFICATION_TYPE": "U", "NORAD_CAT_ID": 46114, "ELEMENT_SET_NO": 999, "REV_AT_EPOCH": 1952, "BSTAR": 0, "MEAN_MOTION_DOT": 5.8e-07, "MEAN_MOTION_DDOT": 0}, "tle": {"line1": "1 46114U 20056C   25357.15184440  .00000058  00000+0  00000+0 0  9999", "line2": "2 46114   0.0188  12.6466 0002016 254.5213 114.4446  1.00270214 19529"}}, "geometry": {"type": "Point", "coordinates": [140.94661846400868, 0.033234137033691234]}}, {"type": "Feature", "properties": {"norad_id": 54026, "name": "GALAXY 33 (G-33)", "group": "intelsat", "lat": 0.010308671842822238, "lon": 132.95470281537297, "alt_km": 35790.46720420087, "timestamp": "2025-12-23T11:34:47.849599+00:00", "meta": {"OBJECT_NAME": "GALAXY 33 (G-33)", "OBJECT_ID": "2022-128A", "EPOCH": "2025-12-22T11:35:15.906336", "MEAN_MOTION": 1.00271669, "ECCENTRICITY": 0.00015964, "INCLINATION": 0.0184, "RA_OF_ASC_NODE": 305.6803, "ARG_OF_PERICENTER": 318.2802, "MEAN_ANOMALY": 228.1459, "EPHEMERIS_TYPE": 0, "CLASSIFICATION_TYPE": "U", "NORAD_CAT_ID": 54026, "ELEMENT_SET_NO": 999, "REV_AT_EPOCH": 1197, "BSTAR": 0, "MEAN_MOTION_DOT": 1.01e-06, "MEAN_MOTION_DDOT": 0}, "tle": {"line1": "1 54026U 22128A   25356.48282299  .00000101  00000+0  00000+0 0  9997", "line2": "2 54026   0.0184 305.6803 0001596 318.2802 228.1459  1.00271669 11973"}}, "geometry": {"type": "Point", "coordinates": [132.95470281537297, 0.010308671842822238]}}, {"type": "Feature", "properties": {"norad_id": 54027, "name": "GALAXY 34 (G-34)", "group": "intelsat", "lat": 0.027159768881518432, "lon": 136.9893728184437, "alt_km": 35791.53626515988, "timestamp": "2025-12-23T11:34:47.849610+00:00", "meta": {"OBJECT_NAME": "GALAXY 34 (G-34)", "OBJECT_ID": "2022-128B", "EPOCH": "2025-12-23T03:37:38.475264", "MEAN_MOTION": 1.00269433, "ECCENTRICITY": 0.0001884, "INCLINATION": 0.0231, "RA_OF_ASC_NODE": 345.9633, "ARG_OF_PERICENTER": 278.1095, "MEAN_ANOMALY": 113.3277, "EPHEMERIS_TYPE": 0, "CLASSIFICATION_TYPE": "U", "NORAD_CAT_ID": 54027, "ELEMENT_SET_NO": 999, "REV_AT_EPOCH": 1214, "BSTAR": 0, "MEAN_MOTION_DOT": 0, "MEAN_MOTION_DDOT": 0}, "tle": {"line1": "1 54027U 22128B   25357.15113976  .00000000  00000+0  00000+0 0  9996", "line2": "2 54027   0.0231 345.9633 0001884 278.1095 113.3277  1.00269433 12142"}}, "geometry": {"type": "Point", "coordinates": [136.9893728184437, 0.027159768881518432]}}, {"type": "Feature", "properties": {"norad_id": 54243, "name": "GALAXY 31 (G-31)", "group": "intelsat", "lat": 0.0011263550544284295, "lon": 144.9491704838878, "alt_km": 35790.64749264423, "timestamp": "2025-12-23T11:34:47.849620+00:00", "meta": {"OBJECT_NAME": "GALAXY 31 (G-31)", "OBJECT_ID": "2022-153A", "EPOCH": "2025-12-23T00:34:24.726720", "MEAN_MOTION": 1.00271291, "ECCENTRICITY": 0.0001433, "INCLINATION": 0.0295, "RA_OF_ASC_NODE": 246.9187, "ARG_OF_PERICENTER": 35.2514, "MEAN_ANOMALY": 57.2493, "EPHEMERIS_TYPE": 0, "CLASSIFICATION_TYPE": "U", "NORAD_CAT_ID": 54243, "ELEMENT_SET_NO": 999, "REV_AT_EPOCH": 536, "BSTAR": 0, "MEAN_MOTION_DOT": 3.5e-07, "MEAN_MOTION_DDOT": 0}, "tle": {"line1": "1 54243U 22153A   25357.02389730  .00000035  00000+0  00000+0 0  9991", "line2": "2 54243   0.0295 246.9187 0001433  35.2514  57.2493  1.00271291  5361"}}, "geometry": {"type": "Point", "coordinates": [144.9491704838878, 0.0011263550544284295]}}, {"type": "Feature", "properties": {"norad_id": 54244, "name": "GALAXY 32 (G-32)", "group": "intelsat", "lat": 0.003066088524076162, "lon": 174.94293685398034, "alt_km": 35793.370232569236, "timestamp": "2025-12-23T11:34:47.849630+00:00", "meta": {"OBJECT_NAME": "GALAXY 32 (G-32)", "OBJECT_ID": "2022-153B", "EPOCH": "2025-12-22T07:35:47.616576", "MEAN_MOTION": 1.00270236, "ECCENTRICITY": 0.00019823, "INCLINATION": 0.0109, "RA_OF_ASC_NODE": 353.9495, "ARG_OF_PERICENTER": 325.6757, "MEAN_ANOMALY": 154.4441, "EPHEMERIS_TYPE": 0, "CLASSIFICATION_TYPE": "U", "NORAD_CAT_ID": 54244, "ELEMENT_SET_NO": 999, "REV_AT_EPOCH": 1137, "BSTAR": 0, "MEAN_MOTION_DOT": -1.52e-06, "MEAN_MOTION_DDOT": 0}, "tle": {"line1": "1 54244U 22153B   25356.31652334 -.00000152  00000+0  00000+0 0  9997", "line2": "2 54244   0.0109 353.9495 0001982 325.6757 154.4441  1.00270236 11370"}}, "geometry": {"type": "Point", "coordinates": [174.94293685398034, 0.003066088524076162]}}, {"type": "Feature", "properties": {"norad_id": 54741, "name": "GALAXY 35 (G-35)", "group": "intelsat", "lat": 0.024150022998654576, "lon": 172.84831514156048, "alt_km": 35788.04738762814, "timestamp": "2025-12-23T11:34:47.849641+00:00", "meta": {"OBJECT_NAME": "GALAXY 35 (G-35)", "OBJECT_ID": "2022-170A", "EPOCH": "2025-12-23T04:13:27.576768", "MEAN_MOTION": 1.00271562, "ECCENTRICITY": 0.0002211, "INCLINATION": 0.0227, "RA_OF_ASC_NODE": 87.6624, "ARG_OF_PERICENTER": 186.8343, "MEAN_ANOMALY": 147.7469, "EPHEMERIS_TYPE": 0, "CLASSIFICATION_TYPE": "U", "NORAD_CAT_ID": 54741, "ELEMENT_SET_NO": 999, "REV_AT_EPOCH": 1112, "BSTAR": 0, "MEAN_MOTION_DOT": -1.41e-06, "MEAN_MOTION_DDOT": 0}, "tle": {"line1": "1 54741U 22170A   25357.17601362 -.00000141  00000+0  00000+0 0  9996", "line2": "2 54741   0.0227  87.6624 0002211 186.8343 147.7469  1.00271562 11123"}}, "geometry": {"type": "Point", "coordinates": [172.84831514156048, 0.024150022998654576]}}, {"type": "Feature", "properties": {"norad_id": 54742, "name": "GALAXY 36 (G-36)", "group": "intelsat", "lat": 0.022196248542574577, "lon": 176.9617737348932, "alt_km": 35788.396501339135, "timestamp": "2025-12-23T11:34:47.849651+00:00", "meta": {"OBJECT_NAME": "GALAXY 36 (G-36)", "OBJECT_ID": "2022-170B", "EPOCH": "2025-12-23T03:34:32.138112", "MEAN_MOTION": 1.00270386, "ECCENTRICITY": 4.71e-05, "INCLINATION": 0.0191, "RA_OF_ASC_NODE": 75.8726, "ARG_OF_PERICENTER": 265.4369, "MEAN_ANOMALY": 75.2679, "EPHEMERIS_TYPE": 0, "CLASSIFICATION_TYPE": "U", "NORAD_CAT_ID": 54742, "ELEMENT_SET_NO": 999, "REV_AT_EPOCH": 1100, "BSTAR": 0, "MEAN_MOTION_DOT": -1.64e-06, "MEAN_MOTION_DDOT": 0}, "tle": {"line1": "1 54742U 22170B   25357.14898308 -.00000164  00000+0  00000+0 0  9997", "line2": "2 54742   0.0191  75.8726 0000471 265.4369  75.2679  1.00270386 11002"}}, "geometry": {"type": "Point", "coordinates": [176.9617737348932, 0.022196248542574577]}}, {"type": "Feature", "properties": {"norad_id": 57493, "name": "GALAXY 37 (G-37)", "group": "intelsat", "lat": 0.025007647836665366, "lon": 138.9397240173032, "alt_km": 35792.326893294885, "timestamp": "2025-12-23T11:34:47.849661+00:00", "meta": {"OBJECT_NAME": "GALAXY 37 (G-37)", "OBJECT_ID": "2023-112A", "EPOCH": "2025-12-23T03:37:14.527776", "MEAN_MOTION": 1.00271408, "ECCENTRICITY": 0.0001985, "INCLINATION": 0.0152, "RA_OF_ASC_NODE": 353.5638, "ARG_OF_PERICENTER": 282.5328, "MEAN_ANOMALY": 103.1501, "EPHEMERIS_TYPE": 0, "CLASSIFICATION_TYPE": "U", "NORAD_CAT_ID": 57493, "ELEMENT_SET_NO": 999, "REV_AT_EPOCH": 877, "BSTAR": 0, "MEAN_MOTION_DOT": 6.9e-07, "MEAN_MOTION_DDOT": 0}, "tle": {"line1": "1 57493U 23112A   25357.15086259  .00000069  00000+0  00000+0 0  9998", "line2": "2 57493   0.0152 353.5638 0001985 282.5328 103.1501  1.00271408  8770"}}, "geometry": {"type": "Point", "coordinates": [138.9397240173032, 0.025007647836665366]}}]}